{
  "type": "FeatureCollection",
  "features": [
    {
      "type": "Feature",
      "properties": {
        "norad_id": 38474,
        "name": "IRIDIUM 33 DEB",
        "group": "iridium-33-debris",
        "lat": -11.213836978496383,
        "lon": -173.58973243534084,
        "alt_km": 741.5373913675203,
        "timestamp": "2025-12-22T18:58:53.818792+00:00",
        "meta_object_name": "IRIDIUM 33 DEB",
        "meta_object_id": "1997-051AAB",
        "meta_epoch": "2025-12-21T07:20:31.212384",
        "meta_mean_motion": 14.50718538,
        "meta_eccentricity": 0.0027615,
        "meta_inclination": 86.3426,
        "meta_ra_of_asc_node": 6.3307,
        "meta_arg_of_pericenter": 61.1056,
        "meta_mean_anomaly": 299.2914,
        "meta_ephemeris_type": 0,
        "meta_classification_type": "U",
        "meta_norad_cat_id": 38474,
        "meta_element_set_no": 999,
        "meta_rev_at_epoch": 65442,
        "meta_bstar": 0.00039086,
        "meta_mean_motion_dot": 1.564e-05,
        "meta_mean_motion_ddot": 0,
        "tle_line1": "1 38474U 97051AAB 25355.30591681  .00001564  00000+0  39086-3 0  9995",
        "tle_line2": "2 38474  86.3426   6.3307 0027615  61.1056 299.2914 14.50718538654425"
      },
      "geometry": {
        "type": "Point",
        "coordinates": [
          -173.58973243534084,
          -11.213836978496383
        ]
      }
    },
    {
      "type": "Feature",
      "properties": {
        "norad_id": 39777,
        "name": "IRIDIUM 33 DEB",
        "group": "iridium-33-debris",
        "lat": 85.3376292126561,
        "lon": -129.8312556758362,
        "alt_km": 678.3483855814911,
        "timestamp": "2025-12-22T18:58:53.818802+00:00",
        "meta_object_name": "IRIDIUM 33 DEB",
        "meta_object_id": "1997-051AAJ",
        "meta_epoch": "2025-12-22T05:23:22.689024",
        "meta_mean_motion": 14.56630479,
        "meta_eccentricity": 0.00604551,
        "meta_inclination": 85.9626,
        "meta_ra_of_asc_node": 170.4414,
        "meta_arg_of_pericenter": 154.7233,
        "meta_mean_anomaly": 205.6955,
        "meta_ephemeris_type": 0,
        "meta_classification_type": "U",
        "meta_norad_cat_id": 39777,
        "meta_element_set_no": 999,
        "meta_rev_at_epoch": 60323,
        "meta_bstar": 0.0030974164,
        "meta_mean_motion_dot": 0.00014197,
        "meta_mean_motion_ddot": 0,
        "tle_line1": "1 39777U 97051AAJ 25356.22456816  .00014197  00000+0  30974-2 0  9996",
        "tle_line2": "2 39777  85.9626 170.4414 0060455 154.7233 205.6955 14.56630479603238"
      },
      "geometry": {
        "type": "Point",
        "coordinates": [
          -129.8312556758362,
          85.3376292126561
        ]
      }
    },
    {
      "type": "Feature",
      "properties": {
        "norad_id": 39778,
        "name": "IRIDIUM 33 DEB",
        "group": "iridium-33-debris",
        "lat": -22.07742234512285,
        "lon": -139.66528010989373,
        "alt_km": 721.8430934507696,
        "timestamp": "2025-12-22T18:58:53.818813+00:00",
        "meta_object_name": "IRIDIUM 33 DEB",
        "meta_object_id": "1997-051AAK",
        "meta_epoch": "2025-12-21T20:35:18.523392",
        "meta_mean_motion": 14.54320185,
        "meta_eccentricity": 0.00069599,
        "meta_inclination": 86.3767,
        "meta_ra_of_asc_node": 39.2671,
        "meta_arg_of_pericenter": 13.6493,
        "meta_mean_anomaly": 346.4901,
        "meta_ephemeris_type": 0,
        "meta_classification_type": "U",
        "meta_norad_cat_id": 39778,
        "meta_element_set_no": 999,
        "meta_rev_at_epoch": 60825,
        "meta_bstar": 0.00075764417,
        "meta_mean_motion_dot": 3.235e-05,
        "meta_mean_motion_ddot": 0,
        "tle_line1": "1 39778U 97051AAK 25355.85785328  .00003235  00000+0  75764-3 0  9996",
        "tle_line2": "2 39778  86.3767  39.2671 0006959  13.6493 346.4901 14.54320185608257"
      },
      "geometry": {
        "type": "Point",
        "coordinates": [
          -139.66528010989373,
          -22.07742234512285
        ]
      }
    },
    {
      "type": "Feature",
      "properties": {
        "norad_id": 39781,
        "name": "IRIDIUM 33 DEB",
        "group": "iridium-33-debris",
        "lat": -4.5998301365193255,
        "lon": 74.1292951658206,
        "alt_km": 755.5577017232263,
        "timestamp": "2025-12-22T18:58:53.818823+00:00",
        "meta_object_name": "IRIDIUM 33 DEB",
        "meta_object_id": "1997-051AAN",
        "meta_epoch": "2025-12-20T00:15:44.286336",
        "meta_mean_motion": 14.2080867,
        "meta_eccentricity": 0.01741047,
        "meta_inclination": 86.3716,
        "meta_ra_of_asc_node": 254.9822,
        "meta_arg_of_pericenter": 249.9468,
        "meta_mean_anomaly": 125.5554,
        "meta_ephemeris_type": 0,
        "meta_classification_type": "U",
        "meta_norad_cat_id": 39781,
        "meta_element_set_no": 999,
        "meta_rev_at_epoch": 8210,
        "meta_bstar": 0.0030068331,
        "meta_mean_motion_dot": 7.585e-05,
        "meta_mean_motion_ddot": 0,
        "tle_line1": "1 39781U 97051AAN 25354.01092924  .00007585  00000+0  30068-2 0  9999",
        "tle_line2": "2 39781  86.3716 254.9822 0174104 249.9468 125.5554 14.20808670 82106"
      },
      "geometry": {
        "type": "Point",
        "coordinates": [
          74.1292951658206,
          -4.5998301365193255
        ]
      }
    },
    {
      "type": "Feature",
      "properties": {
        "norad_id": 40996,
        "name": "IRIDIUM 33 DEB",
        "group": "iridium-33-debris",
        "lat": -33.68788587719256,
        "lon": 179.14936929392292,
        "alt_km": 590.9189166963506,
        "timestamp": "2025-12-22T18:58:53.818834+00:00",
        "meta_object_name": "IRIDIUM 33 DEB",
        "meta_object_id": "1997-051ABJ",
        "meta_epoch": "2025-12-21T06:48:04.268736",
        "meta_mean_motion": 14.9672554,
        "meta_eccentricity": 0.001126,
        "meta_inclination": 86.3507,
        "meta_ra_of_asc_node": 357.4159,
        "meta_arg_of_pericenter": 39.2145,
        "meta_mean_anomaly": 336.8251,
        "meta_ephemeris_type": 0,
        "meta_classification_type": "U",
        "meta_norad_cat_id": 40996,
        "meta_element_set_no": 999,
        "meta_rev_at_epoch": 62616,
        "meta_bstar": 0.0023808,
        "meta_mean_motion_dot": 0.00027327,
        "meta_mean_motion_ddot": 0,
        "tle_line1": "1 40996U 97051ABJ 25355.28338274  .00027327  00000+0  23808-2 0  9990",
        "tle_line2": "2 40996  86.3507 357.4159 0011260  39.2145 336.8251 14.96725540626169"
      },
      "geometry": {
        "type": "Point",
        "coordinates": [
          179.14936929392292,
          -33.68788587719256
        ]
      }
    },
    {
      "type": "Feature",
      "properties": {
        "norad_id": 40998,
        "name": "IRIDIUM 33 DEB",
        "group": "iridium-33-debris",
        "lat": -69.60376525932186,
        "lon": -120.84064004732502,
        "alt_km": 755.326976577494,
        "timestamp": "2025-12-22T18:58:53.818844+00:00",
        "meta_object_name": "IRIDIUM 33 DEB",
        "meta_object_id": "1997-051ABL",
        "meta_epoch": "2025-12-19T22:16:12.052992",
        "meta_mean_motion": 14.4511921,
        "meta_eccentricity": 0.000918,
        "meta_inclination": 86.3822,
        "meta_ra_of_asc_node": 50.5853,
        "meta_arg_of_pericenter": 65.4089,
        "meta_mean_anomaly": 59.4922,
        "meta_ephemeris_type": 0,
        "meta_classification_type": "U",
        "meta_norad_cat_id": 40998,
        "meta_element_set_no": 999,
        "meta_rev_at_epoch": 6785,
        "meta_bstar": 0.00031233,
        "meta_mean_motion_dot": 1.112e-05,
        "meta_mean_motion_ddot": 0,
        "tle_line1": "1 40998U 97051ABL 25353.92791728  .00001112  00000+0  31233-3 0  9994",
        "tle_line2": "2 40998  86.3822  50.5853 0009180  65.4089  59.4922 14.45119210 67852"
      },
      "geometry": {
        "type": "Point",
        "coordinates": [
          -120.84064004732502,
          -69.60376525932186
        ]
      }
    },
    {
      "type": "Feature",
      "properties": {
        "norad_id": 46435,
        "name": "IRIDIUM 33 DEB",
        "group": "iridium-33-debris",
        "lat": 27.462670536469393,
        "lon": -168.44004948619641,
        "alt_km": 899.6876397979258,
        "timestamp": "2025-12-22T18:58:53.818855+00:00",
        "meta_object_name": "IRIDIUM 33 DEB",
        "meta_object_id": "1997-051ABN",
        "meta_epoch": "2025-12-13T20:22:29.882208",
        "meta_mean_motion": 14.32399442,
        "meta_eccentricity": 0.0208315,
        "meta_inclination": 86.2839,
        "meta_ra_of_asc_node": 193.4722,
        "meta_arg_of_pericenter": 272.7642,
        "meta_mean_anomaly": 103.0816,
        "meta_ephemeris_type": 0,
        "meta_classification_type": "U",
        "meta_norad_cat_id": 46435,
        "meta_element_set_no": 999,
        "meta_rev_at_epoch": 7932,
        "meta_bstar": 0.009141333,
        "meta_mean_motion_dot": 0.00031559,
        "meta_mean_motion_ddot": 0,
        "tle_line1": "1 46435U 97051ABN 25347.84895697  .00031559  00000+0  91413-2 0  9993",
        "tle_line2": "2 46435  86.2839 193.4722 0208315 272.7642 103.0816 14.32399442 79328"
      },
      "geometry": {
        "type": "Point",
        "coordinates": [
          -168.44004948619641,
          27.462670536469393
        ]
      }
    }
  ]
}